NORAD_CAT_ID,OBJECT_NAME,OBJECT_TYPE,EPOCH,MEAN_MOTION,ECCENTRICITY,INCLINATION,RA_OF_ASC_NODE,ARG_OF_PERICENTER,MEAN_ANOMALY,BSTAR,MEAN_MOTION_DOT,MEAN_MOTION_DDOT,TLE_LINE0,TLE_LINE1,TLE_LINE2,SEMIMAJOR_AXIS,PERIOD,APOGEE,PERIGEE,DECAYED
51770.0,STARLINK-3612,PAYLOAD,2023-11-20 21:24:09,15.0884054,0.0001451,53.2168,149.1225,91.221,268.8949,7.2131e-05,8.6e-06,0.0,0 STARLINK-3612,1 51770U 22017C   23324.89177702  .00000860  00000-0  72131-4 0  9999,2 51770  53.2168 149.1225 0001451  91.2210 268.8949 15.08840540 95833,6917.879,95.438,540.748,538.74,0.0
51770.0,STARLINK-3612,PAYLOAD,2023-11-21 13:18:01,15.08835989,0.0001438,53.2165,146.1482,90.6094,269.5063,4.869e-05,4.87e-06,0.0,0 STARLINK-3612,1 51770U 22017C   23325.55418200  .00000487  00000-0  48690-4 0  9992,2 51770  53.2165 146.1482 0001438  90.6094 269.5063 15.08835989 95937,6917.893,95.438,540.752,538.763,0.0
51770.0,STARLINK-3612,PAYLOAD,2023-11-21 19:39:33,15.08839489,0.0001438,53.2166,144.9587,90.4194,269.6962,5.9223e-05,6.55e-06,0.0,0 STARLINK-3612,1 51770U 22017C   23325.81914031  .00000655  00000-0  59223-4 0  9995,2 51770  53.2166 144.9587 0001438  90.4194 269.6962 15.08839489 95971,6917.882,95.438,540.742,538.752,0.0
51770.0,STARLINK-3612,PAYLOAD,2023-11-22 19:30:20,15.08846995,0.0001443,53.2168,140.4982,89.6186,270.4972,6.8096e-05,7.96e-06,0.0,0 STARLINK-3612,1 51770U 22017C   23326.81273523  .00000796  00000-0  68096-4 0  9994,2 51770  53.2168 140.4982 0001443  89.6186 270.4972 15.08846995 96129,6917.859,95.437,540.722,538.726,0.0
51770.0,STARLINK-3612,PAYLOAD,2023-11-23 17:45:44,15.08838116,0.000152,53.2174,136.3354,83.6277,276.4888,3.5784e-05,2.82e-06,0.0,0 STARLINK-3612,1 51770U 22017C   23327.74010280  .00000282  00000-0  35784-4 0  9994,2 51770  53.2174 136.3354 0001520  83.6277 276.4888 15.08838116 97707,6917.886,95.438,540.803,538.7,0.0
51770.0,STARLINK-3612,PAYLOAD,2023-11-24 14:25:45,15.08840447,0.0001567,53.2176,132.471,81.3031,278.8139,4.4567e-05,4.21e-06,0.0,0 STARLINK-3612,1 51770U 22017C   23328.60122242  .00000421  00000-0  44567-4 0  9996,2 51770  53.2176 132.4710 0001567  81.3031 278.8139 15.08840447 96395,6917.879,95.438,540.828,538.66,0.0
51770.0,STARLINK-3612,PAYLOAD,2023-11-24 17:36:31,15.08840313,0.0001492,53.2176,131.8759,86.716,273.4003,3.6886e-05,2.99e-06,0.0,0 STARLINK-3612,1 51770U 22017C   23328.73370215  .00000299  00000-0  36886-4 0  9993,2 51770  53.2176 131.8759 0001492  86.7160 273.4003 15.08840313 96416,6917.879,95.438,540.777,538.712,0.0
51770.0,STARLINK-3612,PAYLOAD,2023-11-25 14:16:32,15.08843554,0.0001304,53.2169,128.0095,84.0096,276.1045,0.00011507,1.544e-05,0.0,0 STARLINK-3612,1 51770U 22017C   23329.59481849  .00001544  00000-0  11507-3 0  9990,2 51770  53.2169 128.0095 0001304  84.0096 276.1045 15.08843554 96540,6917.87,95.437,540.637,538.832,0.0
51770.0,STARLINK-3612,PAYLOAD,2023-11-25 20:38:04,15.08849581,0.0001333,53.2167,126.8181,82.4926,277.6217,0.0001732,2.47e-05,0.0,0 STARLINK-3612,1 51770U 22017C   23329.85977330  .00002470  00000-0  17320-3 0  9992,2 51770  53.2167 126.8181 0001333  82.4926 277.6217 15.08849581 96583,6917.851,95.437,540.638,538.794,0.0
51770.0,STARLINK-3612,PAYLOAD,2023-11-26 10:56:32,15.08846999,0.0001308,53.2165,124.1399,89.1393,270.9749,8.3684e-05,1.044e-05,0.0,0 STARLINK-3612,1 51770U 22017C   23330.45593505  .00001044  00000-0  83684-4 0  9991,2 51770  53.2165 124.1399 0001308  89.1393 270.9749 15.08846999 98114,6917.859,95.437,540.629,538.819,0.0
51770.0,STARLINK-3612,PAYLOAD,2023-11-26 14:07:18,15.08848954,0.000131,53.2165,123.545,90.6236,269.4906,9.5833e-05,1.238e-05,0.0,0 STARLINK-3612,1 51770U 22017C   23330.58841266  .00001238  00000-0  95833-4 0  9999,2 51770  53.2165 123.5450 0001310  90.6236 269.4906 15.08848954 96693,6917.853,95.437,540.624,538.812,0.0
51770.0,STARLINK-3612,PAYLOAD,2023-11-26 17:18:04,15.08851228,0.0001353,53.2169,122.9507,91.0839,269.0309,0.00011518,1.546e-05,0.0,0 STARLINK-3612,1 51770U 22017C   23330.72089009  .00001546  00000-0  11518-3 0  9993,2 51770  53.2169 122.9507 0001353  91.0839 269.0309 15.08851228 96718,6917.846,95.437,540.647,538.775,0.0
51770.0,STARLINK-3612,PAYLOAD,2023-11-27 10:47:20,15.08833371,0.0001359,53.2172,119.6785,101.9398,258.1746,-3.8186e-05,-8.95e-06,0.0,0 STARLINK-3612,1 51770U 22017C   23331.44954599 -.00000895  00000-0 -38186-4 0  9997,2 51770  53.2172 119.6785 0001359 101.9398 258.1746 15.08833371 98265,6917.901,95.438,540.706,538.826,0.0
51770.0,STARLINK-3612,PAYLOAD,2023-11-27 13:58:07,15.08831652,0.0001539,53.2171,119.0836,114.9697,245.1455,-5.6807e-05,-1.192e-05,0.0,0 STARLINK-3612,1 51770U 22017C   23331.58202757 -.00001192  00000-0 -56807-4 0  9995,2 51770  53.2171 119.0836 0001539 114.9697 245.1455 15.08831652 96846,6917.906,95.438,540.836,538.706,0.0
51770.0,STARLINK-3612,PAYLOAD,2023-11-27 15:33:30,15.0882962,0.0001325,53.2174,118.7863,108.6121,251.5015,-7.2407e-05,-1.44e-05,0.0,0 STARLINK-3612,1 51770U 22017C   23331.64826973 -.00001440  00000-0 -72407-4 0  9994,2 51770  53.2174 118.7863 0001325 108.6121 251.5015 15.08829620 96856,6917.912,95.438,540.694,538.86,0.0
51770.0,STARLINK-3612,PAYLOAD,2023-11-28 13:48:54,15.0883701,0.0001619,53.2181,114.63,104.504,255.6132,4.2297e-05,3.85e-06,0.0,0 STARLINK-3612,1 51770U 22017C   23332.57562723  .00000385  00000-0  42297-4 0  9996,2 51770  53.2181 114.6300 0001619 104.5040 255.6132 15.08837010 96998,6917.89,95.438,540.875,538.635,0.0
51770.0,STARLINK-3612,PAYLOAD,2023-11-28 16:59:40,15.08844002,0.0001631,53.218,114.0341,98.6817,261.436,9.2788e-05,1.189e-05,0.0,0 STARLINK-3612,1 51770U 22017C   23332.70810239  .00001189  00000-0  92788-4 0  9992,2 51770  53.2180 114.0341 0001631  98.6817 261.4360 15.08844002 98455,6917.868,95.437,540.861,538.605,0.0
51770.0,STARLINK-3612,PAYLOAD,2023-11-29 13:39:41,15.08837224,0.0001217,53.2173,110.1665,79.0851,281.0278,0.00024495,3.612e-05,0.0,0 STARLINK-3612,1 51770U 22017C   23333.56922663  .00003612  00000-0  24495-3 0  9994,2 51770  53.2173 110.1665 0001217  79.0851 281.0278 15.08837224 97143,6917.889,95.438,540.596,538.912,0.0
51770.0,STARLINK-3612,PAYLOAD,2023-11-29 16:50:27,15.08841343,0.0001318,53.2173,109.5725,74.2257,285.888,0.00027889,4.154e-05,0.0,0 STARLINK-3612,1 51770U 22017C   23333.70170429  .00004154  00000-0  27889-3 0  9997,2 51770  53.2173 109.5725 0001318  74.2257 285.8880 15.08841343 98601,6917.876,95.437,540.653,538.83,0.0
51770.0,STARLINK-3612,PAYLOAD,2023-11-30 08:44:19,15.0883948,0.0001204,53.2174,106.5985,91.0508,269.0622,1.626e-05,-2.9e-07,0.0,0 STARLINK-3612,1 51770U 22017C   23334.36411428 -.00000029  00000-0  16260-4 0  9997,2 51770  53.2174 106.5985 0001204  91.0508 269.0622 15.08839480 98705,6917.882,95.438,540.58,538.914,0.0
51770.0,STARLINK-3612,PAYLOAD,2023-11-30 16:41:14,15.08844307,0.0001323,53.2177,105.1126,79.4678,280.6463,7.0264e-05,8.31e-06,0.0,0 STARLINK-3612,1 51770U 22017C   23334.69531090  .00000831  00000-0  70264-4 0  9995,2 51770  53.2177 105.1126 0001323  79.4678 280.6463 15.08844307 98751,6917.867,95.437,540.647,538.817,0.0
51770.0,STARLINK-3612,PAYLOAD,2023-12-01 14:56:38,15.08847176,0.0002048,53.218,100.9466,55.752,304.3666,0.00012364,1.68e-05,0.0,0 STARLINK-3612,1 51770U 22017C   23335.62266888  .00001680  00000-0  12364-3 0  9998,2 51770  53.2180 100.9466 0002048  55.7520 304.3666 15.08847176 97455,6917.858,95.437,541.14,538.307,0.0
51770.0,STARLINK-3612,PAYLOAD,2023-12-02 13:12:01,15.0885937,0.0001403,53.2173,96.7845,95.7433,264.3719,0.00032539,4.897e-05,0.0,0 STARLINK-3612,1 51770U 22017C   23336.55001644  .00004897  00000-0  32539-3 0  9997,2 51770  53.2173  96.7845 0001403  95.7433 264.3719 15.08859370 99030,6917.821,95.436,540.657,538.716,0.0
51770.0,STARLINK-3612,PAYLOAD,2023-12-02 14:47:24,15.08860954,0.0001477,53.2179,96.4899,100.5996,259.5163,0.00031429,4.72e-05,0.0,0 STARLINK-3612,1 51770U 22017C   23336.61625418  .00004720  00000-0  31429-3 0  9997,2 51770  53.2179  96.4899 0001477 100.5996 259.5163 15.08860954 97602,6917.816,95.436,540.703,538.66,0.0
51770.0,STARLINK-3612,PAYLOAD,2023-12-03 11:27:27,15.08818787,0.0001527,53.2177,92.6243,101.419,258.6973,-0.00039813,-6.615e-05,0.0,0 STARLINK-3612,1 51770U 22017C   23337.47739734 -.00006615  00000-0 -39813-3 0  9991,2 51770  53.2177  92.6243 0001527 101.4190 258.6973 15.08818787 99173,6917.945,95.439,540.867,538.754,0.0
51770.0,STARLINK-3612,PAYLOAD,2023-12-03 14:38:14,15.08806545,0.0001391,53.2178,92.0277,86.2549,273.8602,-0.00048662,-8.017e-05,0.0,0 STARLINK-3612,1 51770U 22017C   23337.60988813 -.00008017  00000-0 -48662-3 0  9990,2 51770  53.2178  92.0277 0001391  86.2549 273.8602 15.08806545 97751,6917.983,95.44,540.81,538.885,0.0
51770.0,STARLINK-3612,PAYLOAD,2023-12-04 11:18:14,15.08831931,0.0001528,53.2178,88.163,67.759,292.3564,-5.2958e-05,-1.131e-05,0.0,0 STARLINK-3612,1 51770U 22017C   23338.47099985 -.00001131  00000-0 -52958-4 0  9993,2 51770  53.2178  88.1630 0001528  67.7590 292.3564 15.08831931 99327,6917.905,95.438,540.827,538.713,0.0
51770.0,STARLINK-3612,PAYLOAD,2023-12-04 12:53:37,15.08834659,0.0001639,53.2188,87.8696,63.5622,296.5538,1.3484e-05,-7.3e-07,0.0,0 STARLINK-3612,1 51770U 22017C   23338.53723998 -.00000073  00000-0  13484-4 0  9992,2 51770  53.2188  87.8696 0001639  63.5622 296.5538 15.08834659 97896,6917.897,95.438,540.896,538.628,0.0
51770.0,STARLINK-3612,PAYLOAD,2023-12-05 12:44:24,15.08844593,0.0001674,53.2181,83.4058,59.8842,300.2316,0.00061429,9.503e-05,0.0,0 STARLINK-3612,1 51770U 22017C   23339.53084173  .00009503  00000-0  61429-3 0  9995,2 51770  53.2181  83.4058 0001674  59.8842 300.2316 15.08844593 98047,6917.866,95.437,540.889,538.573,0.0
51770.0,STARLINK-3612,PAYLOAD,2023-12-05 17:30:33,15.08851258,0.0001653,53.2187,82.513,83.9122,276.2059,0.00058428,9.026e-05,0.0,0 STARLINK-3612,1 51770U 22017C   23339.72955666  .00009026  00000-0  58428-3 0  9995,2 51770  53.2187  82.5130 0001653  83.9122 276.2059 15.08851258 99515,6917.846,95.437,540.854,538.567,0.0
